[{"OBJECT_NAME":"PROTOMETHEE","OBJECT_ID":"2023-174BT","EPOCH":"2026-03-09T23:28:08.029344","MEAN_MOTION":15.30202663,"ECCENTRICITY":0.00088339,"INCLINATION":97.3826,"RA_OF_ASC_NODE":147.9552,"ARG_OF_PERICENTER":148.5993,"MEAN_ANOMALY":211.5776,"EPHEMERIS_TYPE":0,"CLASSIFICATION_TYPE":"U","NORAD_CAT_ID":58321,"ELEMENT_SET_NO":999,"REV_AT_EPOCH":12979,"BSTAR":0.00015715731,"MEAN_MOTION_DOT":4.52e-5,"MEAN_MOTION_DDOT":0},{"OBJECT_NAME":"STARLINK-35117","OBJECT_ID":"2025-210L","EPOCH":"2026-03-09T22:20:03.113376","MEAN_MOTION":15.30194126,"ECCENTRICITY":9.174e-5,"INCLINATION":53.1593,"RA_OF_ASC_NODE":306.2643,"ARG_OF_PERICENTER":96.9851,"MEAN_ANOMALY":263.1254,"EPHEMERIS_TYPE":0,"CLASSIFICATION_TYPE":"U","NORAD_CAT_ID":65632,"ELEMENT_SET_NO":999,"REV_AT_EPOCH":2776,"BSTAR":0.00095663604,"MEAN_MOTION_DOT":0.00028076,"MEAN_MOTION_DDOT":0}]
